[{"OBJECT_NAME":"SL-12 R/B(2)","OBJECT_ID":"1998-025D","EPOCH":"2026-03-03T23:41:11.336064","MEAN_MOTION":1.00043381,"ECCENTRICITY":0.00291963,"INCLINATION":13.9485,"RA_OF_ASC_NODE":4.65,"ARG_OF_PERICENTER":131.7035,"MEAN_ANOMALY":243.0627,"EPHEMERIS_TYPE":0,"CLASSIFICATION_TYPE":"U","NORAD_CAT_ID":25318,"ELEMENT_SET_NO":999,"REV_AT_EPOCH":10172,"BSTAR":0,"MEAN_MOTION_DOT":7.7e-7,"MEAN_MOTION_DDOT":0},{"OBJECT_NAME":"COSMOS 2351","OBJECT_ID":"1998-027A","EPOCH":"2026-03-02T23:42:37.723104","MEAN_MOTION":2.00325508,"ECCENTRICITY":0.70926705,"INCLINATION":63.592,"RA_OF_ASC_NODE":131.835,"ARG_OF_PERICENTER":180,"MEAN_ANOMALY":180.0925,"EPHEMERIS_TYPE":0,"CLASSIFICATION_TYPE":"U","NORAD_CAT_ID":25327,"ELEMENT_SET_NO":999,"REV_AT_EPOCH":20383,"BSTAR":0,"MEAN_MOTION_DOT":6.39e-6,"MEAN_MOTION_DDOT":0},{"OBJECT_NAME":"SL-12 R/B(2)","OBJECT_ID":"1998-028D","EPOCH":"2026-03-04T18:00:41.113440","MEAN_MOTION":1.82180281,"ECCENTRICITY":0.4861839,"INCLINATION":17.4325,"RA_OF_ASC_NODE":1.2695,"ARG_OF_PERICENTER":334.7122,"MEAN_ANOMALY":4.2675,"EPHEMERIS_TYPE":0,"CLASSIFICATION_TYPE":"U","NORAD_CAT_ID":25334,"ELEMENT_SET_NO":999,"REV_AT_EPOCH":18514,"BSTAR":0,"MEAN_MOTION_DOT":-1.86e-6,"MEAN_MOTION_DDOT":0},{"OBJECT_NAME":"TITAN 4B CENTAUR R/B","OBJECT_ID":"1998-029B","EPOCH":"2026-03-04T04:45:40.997088","MEAN_MOTION":1.00363963,"ECCENTRICITY":0.00435,"INCLINATION":7.6999,"RA_OF_ASC_NODE":342.1218,"ARG_OF_PERICENTER":175.557,"MEAN_ANOMALY":184.4933,"EPHEMERIS_TYPE":0,"CLASSIFICATION_TYPE":"U","NORAD_CAT_ID":25337,"ELEMENT_SET_NO":999,"REV_AT_EPOCH":2479,"BSTAR":0,"MEAN_MOTION_DOT":-3.76e-6,"MEAN_MOTION_DDOT":0},{"OBJECT_NAME":"TITAN 4B CENTAUR R/B","OBJECT_ID":"1996-026B","EPOCH":"2026-03-03T13:22:25.313952","MEAN_MOTION":0.99569727,"ECCENTRICITY":0.044443,"INCLINATION":6.8913,"RA_OF_ASC_NODE":349.8922,"ARG_OF_PERICENTER":36.4798,"MEAN_ANOMALY":326.4769,"EPHEMERIS_TYPE":0,"CLASSIFICATION_TYPE":"U","NORAD_CAT_ID":25349,"ELEMENT_SET_NO":999,"REV_AT_EPOCH":2458,"BSTAR":0,"MEAN_MOTION_DOT":-2.42e-6,"MEAN_MOTION_DDOT":0},{"OBJECT_NAME":"METEOSAT-7 AKM","OBJECT_ID":"1997-049E","EPOCH":"2026-03-02T16:08:17.977920","MEAN_MOTION":1.00641937,"ECCENTRICITY":0.00775789,"INCLINATION":14.1599,"RA_OF_ASC_NODE":0.0604,"ARG_OF_PERICENTER":332.0669,"MEAN_ANOMALY":27.5277,"EPHEMERIS_TYPE":0,"CLASSIFICATION_TYPE":"U","NORAD_CAT_ID":25353,"ELEMENT_SET_NO":999,"REV_AT_EPOCH":11043,"BSTAR":0,"MEAN_MOTION_DOT":-2.65e-6,"MEAN_MOTION_DDOT":0},{"OBJECT_NAME":"DELTA 2 R/B(2)","OBJECT_ID":"1998-035C","EPOCH":"2026-03-02T23:45:07.487136","MEAN_MOTION":2.11090799,"ECCENTRICITY":0.69038566,"INCLINATION":18.8622,"RA_OF_ASC_NODE":205.3156,"ARG_OF_PERICENTER":335.705,"MEAN_ANOMALY":257.8571,"EPHEMERIS_TYPE":0,"CLASSIFICATION_TYPE":"U","NORAD_CAT_ID":25360,"ELEMENT_SET_NO":999,"REV_AT_EPOCH":21359,"BSTAR":0,"MEAN_MOTION_DOT":-2.98e-6,"MEAN_MOTION_DDOT":0},{"OBJECT_NAME":"INTELSAT 805 (IS-805)","OBJECT_ID":"1998-037A","EPOCH":"2026-03-04T03:03:42.988896","MEAN_MOTION":0.99476162,"ECCENTRICITY":0.0012623,"INCLINATION":7.6249,"RA_OF_ASC_NODE":67.006,"ARG_OF_PERICENTER":183.5145,"MEAN_ANOMALY":168.7456,"EPHEMERIS_TYPE":0,"CLASSIFICATION_TYPE":"U","NORAD_CAT_ID":25371,"ELEMENT_SET_NO":999,"REV_AT_EPOCH":10131,"BSTAR":0,"MEAN_MOTION_DOT":7.4e-7,"MEAN_MOTION_DDOT":0},{"OBJECT_NAME":"CZ-3B R/B","OBJECT_ID":"1998-044B","EPOCH":"2026-03-03T23:37:47.723232","MEAN_MOTION":2.25753641,"ECCENTRICITY":0.71623815,"INCLINATION":18.946,"RA_OF_ASC_NODE":34.2884,"ARG_OF_PERICENTER":14.3569,"MEAN_ANOMALY":358.1402,"EPHEMERIS_TYPE":0,"CLASSIFICATION_TYPE":"U","NORAD_CAT_ID":25405,"ELEMENT_SET_NO":999,"REV_AT_EPOCH":22771,"BSTAR":0.0017610837,"MEAN_MOTION_DOT":-3.0e-8,"MEAN_MOTION_DDOT":0},{"OBJECT_NAME":"SL-12 R/B(2)","OBJECT_ID":"1998-050D","EPOCH":"2026-03-04T08:36:46.395648","MEAN_MOTION":1.8282601,"ECCENTRICITY":0.49517093,"INCLINATION":14.7208,"RA_OF_ASC_NODE":89.7476,"ARG_OF_PERICENTER":54.076,"MEAN_ANOMALY":15.2944,"EPHEMERIS_TYPE":0,"CLASSIFICATION_TYPE":"U","NORAD_CAT_ID":25465,"ELEMENT_SET_NO":999,"REV_AT_EPOCH":8441,"BSTAR":0,"MEAN_MOTION_DOT":-1.42e-6,"MEAN_MOTION_DDOT":0},{"OBJECT_NAME":"SL-12 R/B(2)","OBJECT_ID":"1998-065D","EPOCH":"2026-03-04T06:27:44.896032","MEAN_MOTION":1.88161645,"ECCENTRICITY":0.5213377,"INCLINATION":17.1095,"RA_OF_ASC_NODE":110.0931,"ARG_OF_PERICENTER":231.1715,"MEAN_ANOMALY":69.561,"EPHEMERIS_TYPE":0,"CLASSIFICATION_TYPE":"U","NORAD_CAT_ID":25525,"ELEMENT_SET_NO":999,"REV_AT_EPOCH":18784,"BSTAR":0,"MEAN_MOTION_DOT":-1.55e-6,"MEAN_MOTION_DDOT":0},{"OBJECT_NAME":"ARIANE 44LP DEB","OBJECT_ID":"1988-109E","EPOCH":"2026-03-04T13:40:38.508096","MEAN_MOTION":2.24124209,"ECCENTRICITY":0.7188761,"INCLINATION":6.4742,"RA_OF_ASC_NODE":161.9117,"ARG_OF_PERICENTER":209.667,"MEAN_ANOMALY":156.2141,"EPHEMERIS_TYPE":0,"CLASSIFICATION_TYPE":"U","NORAD_CAT_ID":25538,"ELEMENT_SET_NO":999,"REV_AT_EPOCH":22377,"BSTAR":0.0082824,"MEAN_MOTION_DOT":6.03e-6,"MEAN_MOTION_DDOT":0},{"OBJECT_NAME":"DELTA 2 R/B(2)","OBJECT_ID":"1998-068C","EPOCH":"2026-03-03T21:58:57.869184","MEAN_MOTION":2.15166044,"ECCENTRICITY":0.6963863,"INCLINATION":19.5987,"RA_OF_ASC_NODE":231.6691,"ARG_OF_PERICENTER":176.4923,"MEAN_ANOMALY":194.0695,"EPHEMERIS_TYPE":0,"CLASSIFICATION_TYPE":"U","NORAD_CAT_ID":25548,"ELEMENT_SET_NO":999,"REV_AT_EPOCH":21451,"BSTAR":0,"MEAN_MOTION_DOT":-1.19e-6,"MEAN_MOTION_DDOT":0},{"OBJECT_NAME":"TITAN 34B AGENA D DEB","OBJECT_ID":"1983-078E","EPOCH":"2026-03-04T00:07:46.198848","MEAN_MOTION":2.20151857,"ECCENTRICITY":0.7220189,"INCLINATION":63.4772,"RA_OF_ASC_NODE":62.9305,"ARG_OF_PERICENTER":272.7313,"MEAN_ANOMALY":14.3351,"EPHEMERIS_TYPE":0,"CLASSIFICATION_TYPE":"U","NORAD_CAT_ID":25588,"ELEMENT_SET_NO":999,"REV_AT_EPOCH":5462,"BSTAR":0.00096387,"MEAN_MOTION_DOT":6.2e-7,"MEAN_MOTION_DDOT":0},{"OBJECT_NAME":"FENGYUN 2A AKM","OBJECT_ID":"1997-029C","EPOCH":"2026-03-03T06:47:31.854912","MEAN_MOTION":1.0287925,"ECCENTRICITY":0.02232027,"INCLINATION":13.865,"RA_OF_ASC_NODE":354.163,"ARG_OF_PERICENTER":77.3216,"MEAN_ANOMALY":96.7117,"EPHEMERIS_TYPE":0,"CLASSIFICATION_TYPE":"U","NORAD_CAT_ID":25611,"ELEMENT_SET_NO":999,"REV_AT_EPOCH":4749,"BSTAR":0,"MEAN_MOTION_DOT":-3.15e-6,"MEAN_MOTION_DDOT":0},{"OBJECT_NAME":"SL-12 R/B(2)","OBJECT_ID":"1999-005D","EPOCH":"2026-02-28T19:35:02.605632","MEAN_MOTION":1.89590245,"ECCENTRICITY":0.53641629,"INCLINATION":16.492,"RA_OF_ASC_NODE":193.0736,"ARG_OF_PERICENTER":259.2313,"MEAN_ANOMALY":39.7326,"EPHEMERIS_TYPE":0,"CLASSIFICATION_TYPE":"U","NORAD_CAT_ID":25629,"ELEMENT_SET_NO":999,"REV_AT_EPOCH":18722,"BSTAR":0,"MEAN_MOTION_DOT":9.0e-8,"MEAN_MOTION_DDOT":0},{"OBJECT_NAME":"BADR-3 (ARABSAT-3A)","OBJECT_ID":"1999-009A","EPOCH":"2026-03-04T02:55:38.763552","MEAN_MOTION":1.0012487,"ECCENTRICITY":0.00073957,"INCLINATION":11.7647,"RA_OF_ASC_NODE":33.321,"ARG_OF_PERICENTER":316.5832,"MEAN_ANOMALY":91.9614,"EPHEMERIS_TYPE":0,"CLASSIFICATION_TYPE":"U","NORAD_CAT_ID":25638,"ELEMENT_SET_NO":999,"REV_AT_EPOCH":9891,"BSTAR":0,"MEAN_MOTION_DOT":2.2e-7,"MEAN_MOTION_DDOT":0},{"OBJECT_NAME":"RADUGA-1 4","OBJECT_ID":"1999-010A","EPOCH":"2026-03-04T19:15:51.818112","MEAN_MOTION":1.00261514,"ECCENTRICITY":0.0007462,"INCLINATION":15.612,"RA_OF_ASC_NODE":2.4956,"ARG_OF_PERICENTER":287.3312,"MEAN_ANOMALY":275.3141,"EPHEMERIS_TYPE":0,"CLASSIFICATION_TYPE":"U","NORAD_CAT_ID":25642,"ELEMENT_SET_NO":999,"REV_AT_EPOCH":9890,"BSTAR":0,"MEAN_MOTION_DOT":-3.78e-6,"MEAN_MOTION_DDOT":0},{"OBJECT_NAME":"SL-12 R/B(2)","OBJECT_ID":"1999-013D","EPOCH":"2026-03-03T12:57:14.134752","MEAN_MOTION":1.74922491,"ECCENTRICITY":0.4560338,"INCLINATION":12.8931,"RA_OF_ASC_NODE":110.6554,"ARG_OF_PERICENTER":73.3153,"MEAN_ANOMALY":330.4308,"EPHEMERIS_TYPE":0,"CLASSIFICATION_TYPE":"U","NORAD_CAT_ID":25660,"ELEMENT_SET_NO":999,"REV_AT_EPOCH":17224,"BSTAR":0,"MEAN_MOTION_DOT":-1.47e-6,"MEAN_MOTION_DDOT":0},{"OBJECT_NAME":"SEA LAUNCH DEMO","OBJECT_ID":"1999-014A","EPOCH":"2026-03-03T16:46:32.808576","MEAN_MOTION":2.23255312,"ECCENTRICITY":0.7163074,"INCLINATION":1.6736,"RA_OF_ASC_NODE":6.0118,"ARG_OF_PERICENTER":246.4363,"MEAN_ANOMALY":27.3722,"EPHEMERIS_TYPE":0,"CLASSIFICATION_TYPE":"U","NORAD_CAT_ID":25661,"ELEMENT_SET_NO":999,"REV_AT_EPOCH":21975,"BSTAR":0.00080243503,"MEAN_MOTION_DOT":-1.0e-8,"MEAN_MOTION_DDOT":0},{"OBJECT_NAME":"BLOCK DM-SL R/B","OBJECT_ID":"1999-014B","EPOCH":"2026-03-04T18:39:10.116288","MEAN_MOTION":2.24378413,"ECCENTRICITY":0.7177091,"INCLINATION":1.2843,"RA_OF_ASC_NODE":322.6442,"ARG_OF_PERICENTER":359.7947,"MEAN_ANOMALY":63.9006,"EPHEMERIS_TYPE":0,"CLASSIFICATION_TYPE":"U","NORAD_CAT_ID":25662,"ELEMENT_SET_NO":999,"REV_AT_EPOCH":22080,"BSTAR":0.0011879,"MEAN_MOTION_DOT":-4.6e-7,"MEAN_MOTION_DDOT":0},{"OBJECT_NAME":"INSAT-2E (APR-1)","OBJECT_ID":"1999-016A","EPOCH":"2026-03-03T23:48:55.594368","MEAN_MOTION":0.99651015,"ECCENTRICITY":0.00108707,"INCLINATION":11.1502,"RA_OF_ASC_NODE":41.1876,"ARG_OF_PERICENTER":291.01,"MEAN_ANOMALY":75.2831,"EPHEMERIS_TYPE":0,"CLASSIFICATION_TYPE":"U","NORAD_CAT_ID":25666,"ELEMENT_SET_NO":999,"REV_AT_EPOCH":5039,"BSTAR":0,"MEAN_MOTION_DOT":9.0e-8,"MEAN_MOTION_DDOT":0},{"OBJECT_NAME":"SL-12 R/B(2)","OBJECT_ID":"1999-027D","EPOCH":"2026-03-04T18:01:05.467872","MEAN_MOTION":1.87832225,"ECCENTRICITY":0.5170779,"INCLINATION":16.8448,"RA_OF_ASC_NODE":250.2084,"ARG_OF_PERICENTER":157.5901,"MEAN_ANOMALY":345.6305,"EPHEMERIS_TYPE":0,"CLASSIFICATION_TYPE":"U","NORAD_CAT_ID":25743,"ELEMENT_SET_NO":999,"REV_AT_EPOCH":18391,"BSTAR":0,"MEAN_MOTION_DOT":-1.23e-6,"MEAN_MOTION_DDOT":0},{"OBJECT_NAME":"SL-12 R/B(2)","OBJECT_ID":"1999-033D","EPOCH":"2026-03-04T03:25:38.853984","MEAN_MOTION":1.85811105,"ECCENTRICITY":0.50794327,"INCLINATION":17.4609,"RA_OF_ASC_NODE":17.2196,"ARG_OF_PERICENTER":75.1117,"MEAN_ANOMALY":57.0513,"EPHEMERIS_TYPE":0,"CLASSIFICATION_TYPE":"U","NORAD_CAT_ID":25788,"ELEMENT_SET_NO":999,"REV_AT_EPOCH":18117,"BSTAR":0,"MEAN_MOTION_DOT":-1.15e-6,"MEAN_MOTION_DDOT":0}]
